{"type":"FeatureCollection","features":[{"type":"Feature","properties":{},"geometry":{"type":"MultiPolygon","coordinates":[[[[-63.16783606699994,18.16933828300006],[-63.150502081999946,18.169094143000052],[-63.136830206999946,18.17340729400007],[-63.113840298999946,18.189846096000053],[-63.10236568899995,18.18040599200009],[-63.09951738199993,18.176174221000053],[-63.059456337698165,18.2],[-63.13966763242578,18.2],[-63.16783606699994,18.16933828300006]]],[[[-63.14683997299994,18.07029857000009],[-63.1438695949999,18.06468333500004],[-63.13434811099995,18.059475002000056],[-63.10700436099995,18.066961981000077],[-63.10700436099995,18.059475002000056],[-63.11888587099992,18.05149974200009],[-63.112172003999945,18.043036200000074],[-63.097645636999914,18.035956122000073],[-63.03062903599994,18.01911041900007],[-63.01073157499991,18.040838934000078],[-63.01109778599994,18.070746161000045],[-63.01793372299994,18.100531317000048],[-63.017648891999954,18.12213776200008],[-63.03140214799993,18.121893622000073],[-63.05211341099994,18.116848049000055],[-63.070871548999946,18.11001211100006],[-63.07909094999991,18.10419342700004],[-63.08381100199995,18.087958075000074],[-63.09609941299993,18.07880280200004],[-63.11375891799992,18.074652411000045],[-63.14362545499995,18.074164130000042],[-63.14683997299994,18.07029857000009]]],[[[-62.99714107999995,17.52562083500004],[-62.994699673999946,17.492132880000042],[-62.981085521999944,17.467723731000092],[-62.958723137999925,17.46457117400007],[-62.9489035709999,17.47237460300005],[-62.94506450999995,17.485384431000057],[-62.96525672899992,17.49891596300006],[-62.97725385399991,17.50413683800008],[-62.983796982999934,17.517682944000057],[-62.99714107999995,17.52562083500004]]],[[[-62.86733964799993,17.920396226000037],[-62.861317511999914,17.905422268000052],[-62.85094153599994,17.890448309000078],[-62.83885657499991,17.881984768000052],[-62.82384192599994,17.883246161000045],[-62.81012936099995,17.892279364000046],[-62.798939581999946,17.90448639500005],[-62.79165605399993,17.91547272300005],[-62.857411261999914,17.925034898000092],[-62.866118943999936,17.92914459800005],[-62.86733964799993,17.920396226000037]]],[[[-62.86107337099992,17.36229075700004],[-62.83161373599995,17.330145575000074],[-62.788726365999935,17.30467357000009],[-62.75694739499994,17.292303778000075],[-62.74404863199993,17.29059479400007],[-62.712554490999935,17.292303778000075],[-62.70335852799991,17.289129950000074],[-62.690297003999945,17.27496979400007],[-62.670480923999946,17.26316966400009],[-62.65973873599995,17.225490627000056],[-62.647043423999946,17.217189846000053],[-62.62474524599992,17.22528717700004],[-62.62482662699995,17.241848049000055],[-62.636830206999946,17.258205471000053],[-62.666859503999945,17.273504950000074],[-62.67813066299993,17.292222398000092],[-62.69546464799993,17.333238023000092],[-62.719960089999915,17.358547268000052],[-62.819569464999915,17.415838934000078],[-62.822336391999954,17.410101630000042],[-62.82664954299992,17.407171942000048],[-62.846547003999945,17.39996979400007],[-62.85313880099994,17.39472077000005],[-62.86107337099992,17.36229075700004]]],[[[-62.62637285099993,17.140692450000074],[-62.612172003999945,17.10415273600006],[-62.5657445949999,17.100531317000048],[-62.54759680899991,17.104641018000052],[-62.54356848899994,17.10887278900009],[-62.53844153599994,17.12099844000005],[-62.536773240999935,17.129706122000073],[-62.53844153599994,17.161932684000078],[-62.54649817599994,17.18378327000005],[-62.56037350199995,17.19672272300005],[-62.57843990799995,17.20254140800006],[-62.59923255099994,17.202948309000078],[-62.61864173099991,17.182806708000044],[-62.62637285099993,17.140692450000074]]],[[[-62.34826033833981,16.93365664825907],[-62.34706534646081,16.931969600900484],[-62.34446448178299,16.932531950020014],[-62.343058608984165,16.935062521057894],[-62.343058608984165,16.940896893173008],[-62.34727622738063,16.93738221117595],[-62.34826033833981,16.93365664825907]]],[[[-62.230132615999935,16.72760651200008],[-62.218861456999946,16.688706773000092],[-62.16787675699993,16.67536041900007],[-62.15782630099994,16.67731354400007],[-62.14976966099994,16.681789455000057],[-62.14403235599991,16.68821849200009],[-62.14053300699993,16.696478583000044],[-62.141184048999946,16.70184967700004],[-62.14391028599994,16.70897044500009],[-62.15078691299993,16.720363674000055],[-62.15176347599993,16.72451406500005],[-62.147694464999915,16.73704661700009],[-62.147368943999936,16.744289455000057],[-62.156320766999954,16.760321356000077],[-62.170033331999946,16.777004299000055],[-62.17931067599994,16.79450104400007],[-62.174672003999945,16.81313711100006],[-62.1829320949999,16.81273021000004],[-62.202015753999945,16.81932200700004],[-62.218861456999946,16.776312567000048],[-62.230132615999935,16.72760651200008]]],[[[-61.89415442599994,17.100531317000048],[-61.86620032499991,17.086859442000048],[-61.88243567599994,17.07880280200004],[-61.882801886999914,17.07021719000005],[-61.87922115799995,17.06045156500005],[-61.89037024599992,17.03538646000004],[-61.883656378999945,17.026271877000056],[-61.85171464799993,17.007635809000078],[-61.83869381399995,17.004828192000048],[-61.81786048099991,17.00495026200008],[-61.80406653599994,17.00731028900009],[-61.78359941299993,17.016913153000075],[-61.77684485599991,17.01854075700004],[-61.75352942599994,16.99681224200009],[-61.73713131399995,16.98924388200004],[-61.72964433499993,17.001166083000044],[-61.734364386999914,17.025783596000053],[-61.73399817599994,17.034857489000046],[-61.726226365999935,17.03847890800006],[-61.70995032499991,17.03416575700004],[-61.69701087099992,17.027818101000037],[-61.68569902299993,17.028550523000092],[-61.67442786399994,17.04588450700004],[-61.67218990799995,17.057562567000048],[-61.6770727199999,17.062933661000045],[-61.685658331999946,17.06826406500005],[-61.69493567599994,17.079413153000075],[-61.66759192599994,17.079413153000075],[-61.67210852799991,17.090643622000073],[-61.68065344999991,17.100531317000048],[-61.68809973899994,17.100531317000048],[-61.70164954299992,17.093451239000046],[-61.714833136999914,17.093085028000075],[-61.72508704299992,17.09983958500004],[-61.72964433499993,17.114162502000056],[-61.72052975199995,17.116115627000056],[-61.71629798099991,17.118801174000055],[-61.70860755099994,17.127834377000056],[-61.72008216099994,17.12636953300006],[-61.72984778599994,17.12799713700008],[-61.7376195949999,17.132961330000057],[-61.74331620999993,17.141506252000056],[-61.75275631399995,17.12889232000009],[-61.75544186099995,17.12303294500009],[-61.756418423999946,17.114162502000056],[-61.77301998599995,17.12653229400007],[-61.78066972599993,17.14716217700004],[-61.79336503799993,17.164943752000056],[-61.82526607999995,17.168768622000073],[-61.83967037699995,17.159857489000046],[-61.84878495999993,17.14948151200008],[-61.850453253999945,17.137640692000048],[-61.842355923999946,17.12441640800006],[-61.86538652299993,17.11782461100006],[-61.88312740799995,17.110500393000052],[-61.89415442599994,17.100531317000048]]],[[[-61.87385006399995,17.691148179000038],[-61.859364386999914,17.641791083000044],[-61.85728919199994,17.60097890800006],[-61.85179602799991,17.58657461100006],[-61.83893795499995,17.59332916900007],[-61.79474850199995,17.576117255000042],[-61.77696692599994,17.563421942000048],[-61.77065995999993,17.54555898600006],[-61.753570115999935,17.55149974200009],[-61.74327551999994,17.550604559000078],[-61.736398891999954,17.554022528000075],[-61.72964433499993,17.572821356000077],[-61.727772589999915,17.588446356000077],[-61.72874915299991,17.60496653900009],[-61.73591061099995,17.634914455000057],[-61.74327551999994,17.65135325700004],[-61.75426184799994,17.668768622000073],[-61.76817786399994,17.68463776200008],[-61.78429114499994,17.69635651200008],[-61.79727128799993,17.69879791900007],[-61.81822669199994,17.691839911000045],[-61.83145097599993,17.69635651200008],[-61.81786048099991,17.703192450000074],[-61.83779863199993,17.727687893000052],[-61.851673956999946,17.72028229400007],[-61.85643469999991,17.70107656500005],[-61.84919186099995,17.69013092700004],[-61.83120683499993,17.680487372000073],[-61.82502193899995,17.657945054000038],[-61.82648678299995,17.632473049000055],[-61.83145097599993,17.613836981000077],[-61.84316972599993,17.62018463700008],[-61.84316972599993,17.62958405200004],[-61.83922278599994,17.641424872000073],[-61.83893795499995,17.655422268000052],[-61.84422766799992,17.665961005000042],[-61.86009680899991,17.68423086100006],[-61.86620032499991,17.69635651200008],[-61.86937415299991,17.70734284100007],[-61.873036261999914,17.710638739000046],[-61.87385006399995,17.691148179000038]]],[[[-61.79784094999991,16.26788971600007],[-61.79735266799992,16.250799872000073],[-61.791900193999936,16.240057684000078],[-61.78400631399995,16.229315497000073],[-61.77944902299993,16.217230536000045],[-61.78429114499994,16.202337958000044],[-61.76943925699993,16.166489976000037],[-61.76862545499995,16.087632554000038],[-61.756418423999946,16.05219147300005],[-61.74779212099992,16.046698309000078],[-61.74006100199995,16.025824286000045],[-61.73277747299994,16.01398346600007],[-61.702015753999945,15.989894924000055],[-61.69493567599994,15.97646719000005],[-61.702381964999915,15.969631252000056],[-61.69493567599994,15.949164130000042],[-61.643422003999945,15.970363674000055],[-61.59748287699995,15.99673086100006],[-61.56598873599995,16.03351471600007],[-61.55772864499994,16.086330471000053],[-61.564564581999946,16.14093659100007],[-61.57730058499993,16.175930080000057],[-61.57945716099994,16.222316799000055],[-61.57266191299993,16.232570705000057],[-61.54796301999994,16.238430080000057],[-61.55540930899991,16.258246161000045],[-61.54918372299994,16.280585028000075],[-61.551665818999936,16.285549221000053],[-61.55797278599994,16.29169342700004],[-61.57054602799991,16.28974030200004],[-61.58023027299993,16.282131252000056],[-61.58507239499994,16.271307684000078],[-61.59874426999994,16.285549221000053],[-61.60313880099994,16.281195380000042],[-61.612945115999935,16.285549221000053],[-61.59874426999994,16.29169342700004],[-61.61583411399994,16.311835028000075],[-61.65013587099992,16.329331773000092],[-61.68700110599991,16.34170156500005],[-61.71202551999994,16.34638092700004],[-61.72203528599994,16.350897528000075],[-61.728586391999954,16.35960521000004],[-61.73786373599995,16.365301825000074],[-61.756418423999946,16.360663153000075],[-61.7708227199999,16.348822333000044],[-61.78758704299992,16.32029857000009],[-61.79735266799992,16.312201239000046],[-61.793853318999936,16.29905833500004],[-61.79784094999991,16.26788971600007]]],[[[-61.638335740999935,15.853216864000046],[-61.62755286399994,15.846991278000075],[-61.618804490999935,15.85228099200009],[-61.616078253999945,15.860052802000041],[-61.624663865999935,15.871242580000057],[-61.63459225199995,15.866156317000048],[-61.638335740999935,15.853216864000046]]],[[[-61.6076960929999,15.84080638200004],[-61.60598710799991,15.839016018000052],[-61.603505011999914,15.83897532800006],[-61.6050105459999,15.84092845300006],[-61.6076960929999,15.84080638200004]]],[[[-61.59601803299995,15.881252346000053],[-61.59414628799993,15.877956447000088],[-61.58881588399993,15.87718333500004],[-61.59064693899995,15.880479234000063],[-61.59601803299995,15.881252346000053]]],[[[-61.595692511999914,15.862860419000071],[-61.592640753999945,15.85838450700004],[-61.58218339799993,15.861802476000037],[-61.565012173999946,15.874416408000059],[-61.56798255099994,15.881048895000049],[-61.573882615999935,15.883368231000077],[-61.57994544199994,15.880804755000042],[-61.58511308499993,15.870672919000071],[-61.595692511999914,15.862860419000071]]],[[[-61.59349524599992,16.349554755000042],[-61.591053839999915,16.345404364000046],[-61.58641516799992,16.350083726000037],[-61.57664954299992,16.35264720300006],[-61.58417721299992,16.35732656500005],[-61.58869381399995,16.35573965100008],[-61.59349524599992,16.349554755000042]]],[[[-61.591013149999924,15.844102281000062],[-61.59056555899991,15.84015534100007],[-61.585926886999914,15.836493231000077],[-61.58641516799992,15.840440171000068],[-61.591013149999924,15.844102281000062]]],[[[-61.54832923099991,16.25804271000004],[-61.54409745999993,16.24567291900007],[-61.53384355399993,16.23338450700004],[-61.520415818999936,16.22296784100007],[-61.50340735599991,16.213283596000053],[-61.4837133449999,16.205877997000073],[-61.462147589999915,16.202337958000044],[-61.44444739499994,16.20506419500009],[-61.410715298999946,16.21946849200009],[-61.234445766999954,16.258286851000037],[-61.218861456999946,16.25421784100007],[-61.21125240799995,16.25071849200009],[-61.18317623599995,16.24412669500009],[-61.17479407499991,16.243963934000078],[-61.16356360599991,16.25299713700008],[-61.169178839999915,16.258693752000056],[-61.188384568999936,16.263820705000057],[-61.24258378799993,16.30036041900007],[-61.25890051999994,16.30923086100006],[-61.2805883449999,16.327053127000056],[-61.29019120999993,16.33270905200004],[-61.301665818999936,16.334540106000077],[-61.321522589999915,16.334906317000048],[-61.33177649599992,16.34015534100007],[-61.33869381399995,16.33270905200004],[-61.35313880099994,16.340277411000045],[-61.36571204299992,16.348822333000044],[-61.376616990999935,16.35956452000005],[-61.38646399599992,16.37368398600006],[-61.39415442599994,16.38934967700004],[-61.39565995999993,16.399237372000073],[-61.39321855399993,16.425482489000046],[-61.39761308499993,16.45184967700004],[-61.409413214999915,16.472479559000078],[-61.42682857999995,16.489203192000048],[-61.46251380099994,16.51308828300006],[-61.46532141799992,16.509833075000074],[-61.49624589799993,16.49371979400007],[-61.505848761999914,16.48696523600006],[-61.50991777299993,16.480414130000042],[-61.52562415299991,16.46230703300006],[-61.53429114499994,16.449286200000074],[-61.53384355399993,16.43943919500009],[-61.52916419199994,16.430487372000073],[-61.52358964799993,16.39476146000004],[-61.50731360599991,16.389837958000044],[-61.50035559799994,16.385646877000056],[-61.49624589799993,16.38117096600007],[-61.49551347599993,16.36513906500005],[-61.49705969999991,16.356756903000075],[-61.499663865999935,16.353216864000046],[-61.518137173999946,16.348944403000075],[-61.52765865799995,16.337836005000042],[-61.54796301999994,16.27106354400007],[-61.54832923099991,16.25804271000004]]],[[[-61.48892167899993,15.535711981000077],[-61.479359503999945,15.525458075000074],[-61.47520911399994,15.517767645000049],[-61.474273240999935,15.493475653000075],[-61.47207597599993,15.481390692000048],[-61.46003170499995,15.47288646000004],[-61.45425370999993,15.46482982000009],[-61.444203253999945,15.436835028000075],[-61.4212133449999,15.414740302000041],[-61.418080206999946,15.405951239000046],[-61.413726365999935,15.380560614000046],[-61.39956620999993,15.351141669000071],[-61.39500891799992,15.33307526200008],[-61.39321855399993,15.308294989000046],[-61.39093990799995,15.296291408000059],[-61.37828528599994,15.282049872000073],[-61.37279212099992,15.270697333000044],[-61.37279212099992,15.237209377000056],[-61.37612870999993,15.212836005000042],[-61.37409420499995,15.204820054000038],[-61.36286373599995,15.20180898600006],[-61.35073808499993,15.205145575000074],[-61.342681443999936,15.219671942000048],[-61.32872473899994,15.22557200700004],[-61.32359778599994,15.23859284100007],[-61.31818600199995,15.243394273000092],[-61.31187903599994,15.244533596000053],[-61.30337480399993,15.242580471000053],[-61.28929602799991,15.24359772300005],[-61.284413214999915,15.244818427000041],[-61.27721106699994,15.25023021000004],[-61.25666256399995,15.285345770000049],[-61.25373287699995,15.324693101000037],[-61.255523240999935,15.364569403000075],[-61.249256964999915,15.401068427000041],[-61.262928839999915,15.407904364000046],[-61.25601152299993,15.435939846000053],[-61.25767981699994,15.472601630000042],[-61.26716061099995,15.50779857000009],[-61.284047003999945,15.531398830000057],[-61.29954993399991,15.557196356000077],[-61.30768795499995,15.579250393000052],[-61.35732988199993,15.59829336100006],[-61.36974036399994,15.59593333500004],[-61.38463294199994,15.588364976000037],[-61.39757239499994,15.596625067000048],[-61.413726365999935,15.619574286000045],[-61.42593339799993,15.628485419000071],[-61.43724524599992,15.632635809000078],[-61.46898352799991,15.63385651200008],[-61.48062089799993,15.591009833000044],[-61.48888098899994,15.579250393000052],[-61.48119055899991,15.578558661000045],[-61.462147589999915,15.57298411700009],[-61.46727454299992,15.562974351000037],[-61.48399817599994,15.551581122000073],[-61.48888098899994,15.545070705000057],[-61.48892167899993,15.535711981000077]]],[[[-61.332020636999914,15.93195221600007],[-61.325103318999936,15.925848700000074],[-61.32168535099993,15.919094143000052],[-61.31818600199995,15.904486395000049],[-61.30508378799993,15.878485419000071],[-61.27489173099991,15.87376536700009],[-61.24071204299992,15.88182200700004],[-61.215728318999936,15.893947658000059],[-61.20425370999993,15.902777411000045],[-61.19774329299992,15.910589911000045],[-61.19469153599994,15.919582424000055],[-61.19399980399993,15.932074286000045],[-61.197377081999946,15.945054429000038],[-61.21239173099991,15.958929755000042],[-61.22398841099994,15.987534898000092],[-61.24388587099992,16.003973700000074],[-61.26829993399991,16.00926341400009],[-61.29019120999993,15.99750397300005],[-61.308257615999935,15.977687893000052],[-61.315297003999945,15.966945705000057],[-61.31818600199995,15.952541408000059],[-61.332020636999914,15.93195221600007]]],[[[-61.22883053299995,14.821966864000046],[-61.22618567599994,14.807766018000052],[-61.21910559799994,14.795477606000077],[-61.19054114499994,14.76634349200009],[-61.18297278599994,14.756415106000077],[-61.17711341099994,14.744940497000073],[-61.17479407499991,14.732896226000037],[-61.181630011999914,14.713039455000057],[-61.17788652299993,14.705877997000073],[-61.17023678299995,14.696437893000052],[-61.168080206999946,14.691066799000055],[-61.16734778599994,14.684759833000044],[-61.15957597599993,14.666937567000048],[-61.14159094999991,14.650091864000046],[-61.10586503799993,14.626450914000088],[-61.10220292899993,14.622219143000052],[-61.09593665299991,14.610256252000056],[-61.09162350199995,14.605943101000037],[-61.085926886999914,14.604641018000052],[-61.06493079299992,14.605943101000037],[-61.04356848899994,14.60545482000009],[-61.03140214799993,14.607814846000053],[-61.016468878999945,14.612779039000088],[-61.01431230399993,14.595851955000057],[-61.00698808499993,14.581854559000078],[-60.99600175699993,14.565008856000077],[-61.00332597599993,14.550523179000038],[-61.01773027299993,14.545314846000053],[-61.033273891999954,14.54987213700008],[-61.043812628999945,14.565008856000077],[-61.05231686099995,14.557074286000045],[-61.07852128799993,14.544582424000055],[-61.10586503799993,14.51658763200004],[-61.09239661399994,14.508286851000037],[-61.0911352199999,14.50421784100007],[-61.09162350199995,14.496771552000041],[-61.069569464999915,14.46670156500005],[-61.06118730399993,14.46198151200008],[-61.04637610599991,14.464178778000075],[-61.021595831999946,14.474025783000059],[-61.005970831999946,14.476263739000046],[-60.94762122299994,14.46873607000009],[-60.920033331999946,14.47337474200009],[-60.9134008449999,14.47211334800005],[-60.914133266999954,14.46198151200008],[-60.898101365999935,14.460882880000042],[-60.88223222599993,14.470526434000078],[-60.86851966099994,14.475978908000059],[-60.85887610599991,14.46198151200008],[-60.85985266799992,14.44672272300005],[-60.86949622299994,14.441473700000074],[-60.88076738199993,14.437974351000037],[-60.886789516999954,14.427801825000074],[-60.882476365999935,14.413275458000044],[-60.87059485599991,14.40810781500005],[-60.85643469999991,14.409369208000044],[-60.84520423099991,14.414129950000074],[-60.834828253999945,14.427557684000078],[-60.82266191299993,14.456691799000055],[-60.81041419199994,14.46198151200008],[-60.81041419199994,14.46873607000009],[-60.81663977799991,14.480902411000045],[-60.81981360599991,14.496649481000077],[-60.82526607999995,14.51040273600006],[-60.83836829299992,14.51658763200004],[-60.830922003999945,14.527085679000038],[-60.824777798999946,14.530218817000048],[-60.83299719999991,14.54100169500009],[-60.83641516799992,14.55296458500004],[-60.83584550699993,14.565659898000092],[-60.832142706999946,14.578599351000037],[-60.84520423099991,14.571234442000048],[-60.844960089999915,14.58860911700009],[-60.84837805899991,14.596096096000053],[-60.86506100199995,14.601711330000057],[-60.86876380099994,14.607611395000049],[-60.87022864499994,14.614447333000044],[-60.873158331999946,14.619614976000037],[-60.89338131399995,14.630804755000042],[-60.90103105399993,14.63857656500005],[-60.90729732999995,14.65375397300005],[-60.89435787699995,14.659816799000055],[-60.886789516999954,14.660549221000053],[-60.92027747299994,14.67487213700008],[-60.92886308499993,14.66351959800005],[-60.937489386999914,14.666408596000053],[-60.93927975199995,14.674994208000044],[-60.92711341099994,14.68109772300005],[-60.93455969999991,14.68846263200004],[-60.90729732999995,14.702826239000046],[-60.912668423999946,14.708563544000071],[-60.91893469999991,14.712225653000075],[-60.92617753799993,14.712713934000078],[-60.93455969999991,14.70897044500009],[-60.93667558499993,14.731268622000073],[-60.93382727799991,14.75031159100007],[-60.92617753799993,14.755560614000046],[-60.914133266999954,14.73631419500009],[-60.89297441299993,14.757391669000071],[-60.895375128999945,14.763820705000057],[-60.89244544199994,14.767767645000049],[-60.87930253799993,14.777289130000042],[-60.903187628999945,14.777085679000038],[-60.92658443899995,14.771144924000055],[-60.94688880099994,14.761379299000055],[-60.96129309799994,14.749945380000042],[-60.97899329299992,14.784735419000071],[-60.99063066299993,14.787909247000073],[-60.99567623599995,14.795355536000045],[-60.998158331999946,14.804185289000088],[-61.00226803299995,14.811428127000056],[-61.01862545499995,14.82172272300005],[-61.057850714999915,14.838690497000073],[-61.10195878799993,14.86619700700004],[-61.13589433499993,14.876898505000042],[-61.17096920499995,14.876369533000059],[-61.210601365999935,14.854437567000048],[-61.21947180899991,14.846502997000073],[-61.22618567599994,14.835516669000071],[-61.22883053299995,14.821966864000046]]],[[[-61.12730872299994,16.176988023000092],[-61.11953691299993,16.170396226000037],[-61.10960852799991,16.17145416900007],[-61.10627193899995,16.176214911000045],[-61.12730872299994,16.176988023000092]]],[[[-61.10582434799994,16.178574937000064],[-61.103952602999925,16.180528062000064],[-61.10578365799995,16.18113841400009],[-61.10582434799994,16.178574937000064]]],[[[-61.09162350199995,16.30540599200009],[-61.06859290299991,16.30223216400009],[-61.039906378999945,16.31391022300005],[-60.98924719999991,16.34638092700004],[-61.014881964999915,16.353989976000037],[-61.039133266999954,16.34446849200009],[-61.07852128799993,16.312201239000046],[-61.09162350199995,16.30540599200009]]],[[[-61.01800974584057,14],[-60.88548114947344,14],[-60.89020748599995,14.052232164000088],[-60.89297441299993,14.06468333500004],[-60.90103105399993,14.073391018000052],[-60.91193600199995,14.079494533000059],[-60.91860917899993,14.088446356000077],[-60.914133266999954,14.10569896000004],[-60.93346106699994,14.111883856000077],[-60.94762122299994,14.10228099200009],[-60.97606360599991,14.06118398600006],[-60.98232988199993,14.03733958500004],[-60.98729407499991,14.032538153000075],[-61.00226803299995,14.023138739000046],[-61.01800974584057,14]]]]}}]}