{"type":"FeatureCollection","features":[{"type":"Feature","properties":{"featurecla":"Land\u0000\u0000\u0000\u0000\u0000\u0000\u0000","scalerank":0,"min_zoom":0},"geometry":{"type":"Polygon","coordinates":[[[-54.6,2],[-54.6,5.958903532399929],[-54.471780922999926,5.9409698500000445],[-54.34863012599993,5.913755159000061],[-54.252699443999916,5.894808339000065],[-54.16934160099993,5.8679059920000896],[-54.09739562699991,5.84733938100004],[-54.0744563099999,5.84488748800004],[-54.06203176999992,5.84055851800008],[-54.03673144499993,5.842350790000069],[-54.03094366199991,5.834184262000065],[-54.02046226899995,5.830250206000073],[-54.01468747699994,5.820148403000076],[-54.01630686199991,5.809703943000045],[-53.992085009999926,5.76349738600004],[-53.986357453999915,5.745664571000077],[-53.99592037699995,5.734523830000057],[-54.03114763399992,5.669309742000053],[-54.03643877499991,5.62950234200008],[-54.05036373599995,5.5520694030000755],[-54.061105923999946,5.512884833000044],[-54.07359778599994,5.4898135440000715],[-54.091786261999914,5.467922268000052],[-54.10912024599992,5.452826239000046],[-54.118478969999956,5.442775783000059],[-54.12852942599994,5.414292710000041],[-54.17096920499995,5.3483747420000896],[-54.13752193899995,5.360052802000041],[-54.106678839999915,5.38117096600007],[-54.08043372299994,5.407945054000038],[-54.061105923999946,5.436509507000039],[-54.03311113199993,5.5054385440000715],[-54.013010219999956,5.5405947940000715],[-54.00719153599994,5.5581729190000715],[-53.99192502099993,5.661347855000088],[-53.94434961699994,5.744640779000065],[-53.93402292099995,5.744765375000043],[-53.85888293399995,5.733765930000061],[-53.81565116999991,5.715919366000037],[-53.808287752999945,5.714836134000052],[-53.81142424099994,5.720604829000081],[-53.832422755999914,5.731693648000089],[-53.82452494799992,5.733223204000069],[-53.81033328199993,5.7310598180000625],[-53.77674203099991,5.71415567400004],[-53.732403966999925,5.684202814000059],[-53.695596104999936,5.663456422000081],[-53.58258299399995,5.617772066000043],[-53.54713874999993,5.5999423490000595],[-53.517322373999946,5.580774589000043],[-53.4952102499999,5.572104697000043],[-53.44824939299991,5.560945511000057],[-53.40781005799994,5.561831606000055],[-53.30270985599992,5.535476236000079],[-53.27745207799995,5.538191937000079],[-53.26391785099992,5.529887600000052],[-53.24767005099994,5.509751695000091],[-53.23009192599994,5.495306708000044],[-53.207915818999936,5.502346096000053],[-53.207774585999914,5.514037084000051],[-53.22520761399994,5.517059900000049],[-53.24402696699991,5.529744527000048],[-53.26478195599992,5.545825133000051],[-53.28270643299993,5.550300827000058],[-53.28951169699991,5.548901656000055],[-53.29141073399995,5.554709668000044],[-53.28116976599995,5.561878547000049],[-53.27147561499993,5.560359586000061],[-53.25166383599992,5.548626877000061],[-53.22118648499992,5.536335553000072],[-53.177632127999914,5.524431953000089],[-53.15539879699992,5.514130353000041],[-53.1302468479999,5.504770442000051],[-53.08250891799992,5.472154039000088],[-53.046213344999956,5.459662177000041],[-53.005848761999914,5.4507510440000715],[-53.00136455599994,5.458642102000056],[-52.9945805669999,5.457623554000065],[-52.96509665699995,5.4438668560000565],[-52.89651900699994,5.405668008000077],[-52.829101661999914,5.341883111000072],[-52.78316844699992,5.316884190000053],[-52.75294894299992,5.267352196000047],[-52.68122311099995,5.210353908000059],[-52.54092363199993,5.079006252000056],[-52.52611243399991,5.070746161000045],[-52.52798417899993,5.0579287780000755],[-52.52672278599994,5.053615627000056],[-52.52183997299994,5.052679755000042],[-52.509755011999914,5.054510809000078],[-52.50499426999994,5.053615627000056],[-52.479725714999915,5.039618231000077],[-52.402333136999914,4.973822333000044],[-52.38003495999993,4.9368350280000755],[-52.38898678299995,4.895900783000059],[-52.37071692599994,4.907212632000039],[-52.34512285099993,4.942857164000088],[-52.32371985599991,4.950588283000059],[-52.29995683499993,4.945054429000038],[-52.27912350199995,4.9312197940000715],[-52.26427161399994,4.912502346000053],[-52.25861568899995,4.892482815000051],[-52.27651933499993,4.859320380000042],[-52.31314042899993,4.810777085000041],[-52.343006964999915,4.76117584800005],[-52.34048417899993,4.724595445000091],[-52.33433997299994,4.724595445000091],[-52.33165442599994,4.738348700000074],[-52.32457434799994,4.747992255000042],[-52.31720943899995,4.7551944030000755],[-52.31383216099994,4.761867580000057],[-52.308583136999914,4.787258205000057],[-52.30016028599994,4.813381252000056],[-52.28579667899993,4.829575914000088],[-52.242746548999946,4.8561872420000896],[-52.23192298099991,4.875433661000045],[-52.21349036399994,4.866685289000088],[-52.19286048099991,4.849676825000074],[-52.17613684799994,4.829169012000079],[-52.169260219999956,4.809963283000059],[-52.159494594999956,4.795599677000041],[-52.09410559799994,4.75812409100007],[-52.06017005099994,4.730454820000091],[-52.02452551999994,4.693548895000049],[-51.99632727799991,4.652289130000042],[-51.98485266799992,4.611314195000091],[-51.97960364499994,4.571437893000052],[-51.95604407499991,4.494045315000051],[-51.95075436099995,4.454006252000056],[-51.961822068999936,4.408392645000049],[-51.988392706999946,4.385687567000048],[-52.01992753799993,4.367010809000078],[-52.04629472599993,4.3335635440000715],[-51.985585089999915,4.352606512000079],[-51.95140540299991,4.3706729190000715],[-51.93651282499991,4.3919131530000755],[-51.93431555899991,4.402167059000078],[-51.92491614499994,4.429348049000055],[-51.922759568999936,4.447088934000078],[-51.93126380099994,4.590399481000077],[-51.92540442599994,4.626206773000092],[-51.90916907499991,4.65570709800005],[-51.89639238199993,4.66469961100006],[-51.88121497299994,4.667792059000078],[-51.86481686099995,4.6647809920000896],[-51.84829667899993,4.65570709800005],[-51.80150305899991,4.612697658000059],[-51.793080206999946,4.6011416690000715],[-51.800770636999914,4.589667059000078],[-51.773548956999946,4.551988023000092],[-51.76512610599991,4.529038804000038],[-51.76357988199993,4.506089585000041],[-51.75804602799991,4.477769273000092],[-51.74754798099991,4.457180080000057],[-51.731027798999946,4.457098700000074],[-51.73302161399994,4.44790273600006],[-51.73770097599993,4.440375067000048],[-51.74242102799991,4.4360212260000935],[-51.744699673999946,4.436590887000079],[-51.74372311099995,4.428900458000044],[-51.73843339799993,4.413031317000048],[-51.73094641799992,4.399359442000048],[-51.71426347599993,4.3952497420000896],[-51.69762122299994,4.3930524760000935],[-51.69005286399994,4.38507721600007],[-51.69408118399991,4.371039130000042],[-51.71226966099994,4.353745835000041],[-51.716786261999914,4.3335635440000715],[-51.71467037699995,4.316148179000038],[-51.70848548099991,4.3003604190000715],[-51.66930091099994,4.242092190000051],[-51.65672766799992,4.2172712260000935],[-51.65070553299995,4.190008856000077],[-51.64903723899994,4.152329820000091],[-51.65249589799993,4.122056382000039],[-51.67223059799994,4.060777085000041],[-51.68321692599994,4.03937409100007],[-51.651600714999915,4.047674872000073],[-51.631743943999936,4.06781647300005],[-51.595814581999946,4.157863674000055],[-51.59690638799992,4.21550439300006],[-51.585346511999944,4.233817846000079],[-51.571603969999956,4.235419012000079],[-51.55968176999994,4.223700262000079],[-51.55215410099993,4.207180080000057],[-51.53921464799993,4.149237372000073],[-51.51187089799993,4.080308335000041],[-51.5,4.058899456187236],[-51.5,4.1110904192989],[-51.54670162699995,4.255031643000052],[-51.56102454299992,4.357123114000046],[-51.56004798099991,4.369370835000041],[-51.54768275799995,4.4217849390000765],[-51.53784299299991,4.432061124000086],[-51.51649757699994,4.441122259000053],[-51.5,4.432575644999083],[-51.5,2],[-54.6,2]]]}}]}